NORAD_CAT_ID,OBJECT_NAME,OBJECT_TYPE,EPOCH,MEAN_MOTION,ECCENTRICITY,INCLINATION,RA_OF_ASC_NODE,ARG_OF_PERICENTER,MEAN_ANOMALY,BSTAR,MEAN_MOTION_DOT,MEAN_MOTION_DDOT,TLE_LINE0,TLE_LINE1,TLE_LINE2,SEMIMAJOR_AXIS,PERIOD,APOGEE,PERIGEE,DECAYED
52674.0,STARLINK-3936,PAYLOAD,2023-11-26 03:47:58,15.08854947,0.000165,53.2171,300.4762,92.5128,267.6053,0.00031603,4.747e-05,0.0,0 STARLINK-3936,1 52674U 22053U   23330.15831825  .00004747  00000-0  31603-3 0  9998,2 52674  53.2171 300.4762 0001650  92.5128 267.6053 15.08854947 85065,6917.835,95.437,540.841,538.558,0.0
52674.0,STARLINK-3936,PAYLOAD,2023-11-27 03:38:46,15.08841418,0.0001693,53.2177,296.0208,85.5496,274.569,1.1223e-05,-1.09e-06,0.0,0 STARLINK-3936,1 52674U 22053U   23331.15192440 -.00000109  00000-0  11223-4 0  9998,2 52674  53.2177 296.0208 0001693  85.5496 274.5690 15.08841418 84784,6917.876,95.437,540.912,538.57,0.0
52674.0,STARLINK-3936,PAYLOAD,2023-11-27 06:49:32,15.08845208,0.0001785,53.2179,295.4239,107.561,252.5578,8.9595e-05,1.138e-05,0.0,0 STARLINK-3936,1 52674U 22053U   23331.28440129  .00001138  00000-0  89595-4 0  9991,2 52674  53.2179 295.4239 0001785 107.5610 252.5578 15.08845208 85231,6917.864,95.437,540.964,538.495,0.0
52674.0,STARLINK-3936,PAYLOAD,2023-11-28 01:54:10,15.08827444,0.0001461,53.2174,291.8553,87.8138,272.3021,-9.2569e-05,-1.76e-05,0.0,0 STARLINK-3936,1 52674U 22053U   23332.07928959 -.00001760  00000-0 -92569-4 0  9999,2 52674  53.2174 291.8553 0001461  87.8138 272.3021 15.08827444 84921,6917.919,95.438,540.794,538.773,0.0
52674.0,STARLINK-3936,PAYLOAD,2023-11-28 05:04:56,15.0883245,0.0001644,53.2165,291.2577,89.8372,270.2809,0.00010995,1.462e-05,0.0,0 STARLINK-3936,1 52674U 22053U   23332.21176971  .00001462  00000-0  10995-3 0  9993,2 52674  53.2165 291.2577 0001644  89.8372 270.2809 15.08832450 85370,6917.903,95.438,540.906,538.631,0.0
52674.0,STARLINK-3936,PAYLOAD,2023-11-29 03:20:21,15.08854014,0.0001478,53.2155,287.1022,86.185,273.9311,0.0008928,0.00013955,0.0,0 STARLINK-3936,1 52674U 22053U   23333.13913308  .00013955  00000-0  89280-3 0  9991,2 52674  53.2155 287.1022 0001478  86.1850 273.9311 15.08854014 85080,6917.838,95.437,540.725,538.68,0.0
52674.0,STARLINK-3936,PAYLOAD,2023-11-29 06:31:07,15.08870291,0.0001664,53.2172,286.4988,88.2003,271.918,0.001493,0.00023573,0.0,0 STARLINK-3936,1 52674U 22053U   23333.27160979  .00023573  00000-0  14930-2 0  9990,2 52674  53.2172 286.4988 0001664  88.2003 271.9180 15.08870291 85102,6917.788,95.436,540.804,538.502,0.0
52674.0,STARLINK-3936,PAYLOAD,2023-11-30 03:11:07,15.08854115,0.0001853,53.2185,282.6233,95.4561,264.6642,0.00052629,8.101e-05,0.0,0 STARLINK-3936,1 52674U 22053U   23334.13273032  .00008101  00000-0  52629-3 0  9999,2 52674  53.2185 282.6233 0001853  95.4561 264.6642 15.08854115 85239,6917.837,95.437,540.984,538.42,0.0
52674.0,STARLINK-3936,PAYLOAD,2023-12-01 03:01:55,15.08842583,0.0001777,53.2177,278.1734,112.234,247.8841,0.00084671,0.00013214,0.0,0 STARLINK-3936,1 52674U 22053U   23335.12633463  .00013214  00000-0  84671-3 0  9990,2 52674  53.2177 278.1734 0001777 112.2340 247.8841 15.08842583 85380,6917.872,95.437,540.967,538.508,0.0
52674.0,STARLINK-3936,PAYLOAD,2023-12-02 01:17:18,15.08862185,0.0001829,53.2173,274.0109,66.9531,293.1654,0.0007594,0.00011826,0.0,0 STARLINK-3936,1 52674U 22053U   23336.05368839  .00011826  00000-0  75940-3 0  9991,2 52674  53.2173 274.0109 0001829  66.9531 293.1654 15.08862185 85951,6917.813,95.436,540.943,538.412,0.0
52674.0,STARLINK-3936,PAYLOAD,2023-12-03 01:08:05,15.088368,0.000267,53.2167,269.5485,141.2918,218.8266,-0.00024822,-4.237e-05,0.0,0 STARLINK-3936,1 52674U 22053U   23337.04729090 -.00004237  00000-0 -24822-3 0  9994,2 52674  53.2167 269.5485 0002670 141.2918 218.8266 15.08836800 85678,6917.89,95.438,541.602,537.908,0.0
52674.0,STARLINK-3936,PAYLOAD,2023-12-04 05:45:03,15.08833054,0.0001808,53.216,264.1954,122.5759,237.5408,0.00019602,2.832e-05,0.0,0 STARLINK-3936,1 52674U 22053U   23338.23962238  .00002832  00000-0  19602-3 0  9996,2 52674  53.2160 264.1954 0001808 122.5759 237.5408 15.08833054 85854,6917.902,95.438,541.017,538.516,0.0
52674.0,STARLINK-3936,PAYLOAD,2023-12-05 02:25:03,15.08855627,0.0001626,53.216,260.3316,118.1345,241.9812,0.00060298,9.326e-05,0.0,0 STARLINK-3936,1 52674U 22053U   23339.10073694  .00009326  00000-0  60298-3 0  9994,2 52674  53.2160 260.3316 0001626 118.1345 241.9812 15.08855627 85986,6917.833,95.437,540.822,538.573,0.0
52674.0,STARLINK-3936,PAYLOAD,2023-12-05 04:00:26,15.08859702,0.0001591,53.2157,260.0336,117.6127,242.5027,0.00063229,9.795e-05,0.0,0 STARLINK-3936,1 52674U 22053U   23339.16697531  .00009795  00000-0  63229-3 0  9999,2 52674  53.2157 260.0336 0001591 117.6127 242.5027 15.08859702 86427,6917.82,95.436,540.786,538.585,0.0
52674.0,STARLINK-3936,PAYLOAD,2023-12-05 18:18:54,15.08850871,0.000166,53.2151,257.3622,92.9634,267.1548,0.00027207,4.046e-05,0.0,0 STARLINK-3936,1 52674U 22053U   23339.76313624  .00004046  00000-0  27207-3 0  9993,2 52674  53.2151 257.3622 0001660  92.9634 267.1548 15.08850871 86084,6917.847,95.437,540.861,538.564,0.0
52674.0,STARLINK-3936,PAYLOAD,2023-12-06 03:51:13,15.08848965,0.0001548,53.2154,255.5751,106.7249,253.3913,0.0002191,3.202e-05,0.0,0 STARLINK-3936,1 52674U 22053U   23340.16057525  .00003202  00000-0  21910-3 0  9992,2 52674  53.2154 255.5751 0001548 106.7249 253.3913 15.08848965 86579,6917.853,95.437,540.789,538.647,0.0
52674.0,STARLINK-3936,PAYLOAD,2023-12-06 22:55:51,15.08836073,0.0002387,53.2153,252.0008,146.5463,213.5681,5.6262e-05,6.07e-06,0.0,0 STARLINK-3936,1 52674U 22053U   23340.95545696  .00000607  00000-0  56262-4 0  9995,2 52674  53.2153 252.0008 0002387 146.5463 213.5681 15.08836073 86697,6917.892,95.438,541.409,538.106,0.0
52674.0,STARLINK-3936,PAYLOAD,2023-12-07 00:31:15,15.08837004,0.0001474,53.2172,251.7083,83.3361,276.7799,9.1041e-05,1.161e-05,0.0,0 STARLINK-3936,1 52674U 22053U   23341.02170227  .00001161  00000-0  91041-4 0  9998,2 52674  53.2172 251.7083 0001474  83.3361 276.7799 15.08837004 86278,6917.89,95.438,540.774,538.735,0.0
52674.0,STARLINK-3936,PAYLOAD,2023-12-07 18:00:29,15.08838921,0.000148,53.216,248.4404,76.6857,283.43,0.00025637,3.794e-05,0.0,0 STARLINK-3936,1 52674U 22053U   23341.75034632  .00003794  00000-0  25637-3 0  9998,2 52674  53.2160 248.4404 0001480  76.6857 283.4300 15.08838921 86819,6917.884,95.438,540.773,538.725,0.0
52674.0,STARLINK-3936,PAYLOAD,2023-12-08 17:51:16,15.08849638,0.00015,53.2156,243.9807,74.2549,285.8609,0.00035631,5.389e-05,0.0,0 STARLINK-3936,1 52674U 22053U   23342.74394290  .00005389  00000-0  35631-3 0  9994,2 52674  53.2156 243.9807 0001500  74.2549 285.8609 15.08849638 86530,6917.851,95.437,540.754,538.678,0.0
52674.0,STARLINK-3936,PAYLOAD,2023-12-09 03:23:35,15.08857696,0.0001568,53.2157,242.1963,73.0299,287.0865,0.00041747,6.365e-05,0.0,0 STARLINK-3936,1 52674U 22053U   23343.14137779  .00006365  00000-0  41747-3 0  9996,2 52674  53.2157 242.1963 0001568  73.0299 287.0865 15.08857696 87024,6917.826,95.436,540.776,538.607,0.0
52674.0,STARLINK-3936,PAYLOAD,2023-12-10 15:57:27,15.08836659,0.0001532,53.215,235.356,88.0697,272.0471,-8.3749e-05,-1.62e-05,0.0,0 STARLINK-3936,1 52674U 22053U   23344.66490063 -.00001620  00000-0 -83749-4 0  9992,2 52674  53.2150 235.3560 0001532  88.0697 272.0471 15.08836659 86823,6917.891,95.438,540.815,538.696,0.0
52674.0,STARLINK-3936,PAYLOAD,2023-12-10 22:19:00,15.08824056,0.0002071,53.2143,234.1638,112.1021,248.0191,0.00085731,0.00013377,0.0,0 STARLINK-3936,1 52674U 22053U   23344.92986959  .00013377  00000-0  85731-3 0  9997,2 52674  53.2143 234.1638 0002071 112.1021 248.0191 15.08824056 87299,6917.929,95.439,541.227,538.361,0.0
52674.0,STARLINK-3936,PAYLOAD,2023-12-10 23:54:22,15.08857905,0.0001487,53.215,233.8702,96.315,263.8012,-0.00039301,-6.54e-05,0.0,0 STARLINK-3936,1 52674U 22053U   23344.99608952 -.00006540  00000-0 -39301-3 0  9996,2 52674  53.2150 233.8702 0001487  96.3150 263.8012 15.08857905 86870,6917.826,95.436,540.719,538.662,0.0
52674.0,STARLINK-3936,PAYLOAD,2023-12-11 18:59:00,15.08837913,0.0001398,53.2147,230.302,98.5195,261.5956,7.1471e-05,8.5e-06,0.0,0 STARLINK-3936,1 52674U 22053U   23345.79098282  .00000850  00000-0  71471-4 0  9995,2 52674  53.2147 230.3020 0001398  98.5195 261.5956 15.08837913 86997,6917.887,95.438,540.719,538.785,0.0
52674.0,STARLINK-3936,PAYLOAD,2023-12-11 22:09:47,15.08837522,0.0001405,53.2149,229.7078,95.6568,264.4585,4.9091e-05,4.93e-06,0.0,0 STARLINK-3936,1 52674U 22053U   23345.92346270  .00000493  00000-0  49091-4 0  9999,2 52674  53.2149 229.7078 0001405  95.6568 264.4585 15.08837522 87442,6917.888,95.438,540.725,538.781,0.0
52674.0,STARLINK-3936,PAYLOAD,2023-12-12 20:25:11,15.08839708,0.0001393,53.2148,225.5447,95.0741,265.041,6.9753e-05,8.22e-06,0.0,0 STARLINK-3936,1 52674U 22053U   23346.85082355  .00000822  00000-0  69753-4 0  9996,2 52674  53.2148 225.5447 0001393  95.0741 265.0410 15.08839708 87158,6917.881,95.438,540.71,538.783,0.0
52674.0,STARLINK-3936,PAYLOAD,2023-12-12 22:00:34,15.08842854,0.0001389,53.2154,225.247,95.8276,264.2874,0.00011587,1.557e-05,0.0,0 STARLINK-3936,1 52674U 22053U   23346.91706392  .00001557  00000-0  11587-3 0  9994,2 52674  53.2154 225.2470 0001389  95.8276 264.2874 15.08842854 87593,6917.872,95.437,540.698,538.776,0.0
52674.0,STARLINK-3936,PAYLOAD,2023-12-12 23:35:57,15.08844168,0.0001377,53.2155,224.9501,91.0887,269.0263,0.00012541,1.709e-05,0.0,0 STARLINK-3936,1 52674U 22053U   23346.98330305  .00001709  00000-0  12541-3 0  9998,2 52674  53.2155 224.9501 0001377  91.0887 269.0263 15.08844168 87605,6917.868,95.437,540.685,538.78,0.0
52674.0,STARLINK-3936,PAYLOAD,2023-12-13 21:51:21,15.08841824,0.0001594,53.2157,220.7858,72.3704,287.7462,0.00011122,1.483e-05,0.0,0 STARLINK-3936,1 52674U 22053U   23347.91066602  .00001483  00000-0  11122-3 0  9991,2 52674  53.2157 220.7858 0001594  72.3704 287.7462 15.08841824 87746,6917.875,95.437,540.843,538.637,0.0
